sat12560
1 12560U 81059C   20046.90700142  .00000293  00000-0  88714-4 0  9998
2 12560  98.9281 339.3024 0002910 113.0754 317.0409 14.49821791 21182
